{"fetched_at":"2026-07-12T17:33:03.536Z","source":"https://celestrak.org/NORAD/elements/gp.php?NAME=SENTINEL&FORMAT=JSON","constellation":"sentinel-3","records":[{"OBJECT_NAME":"SENTINEL-3A","OBJECT_ID":"2016-011A","EPOCH":"2026-07-12T11:07:10.547328","CLASSIFICATION_TYPE":"U","MEAN_MOTION":14.26739285,"ECCENTRICITY":0.0001375,"INCLINATION":98.6238,"RA_OF_ASC_NODE":260.4825,"ARG_OF_PERICENTER":90.9999,"MEAN_ANOMALY":269.1339,"EPHEMERIS_TYPE":0,"NORAD_CAT_ID":41335,"ELEMENT_SET_NO":999,"REV_AT_EPOCH":54166,"BSTAR":0.000036778,"MEAN_MOTION_DOT":4.5e-7,"MEAN_MOTION_DDOT":0},{"OBJECT_NAME":"SENTINEL-3B","OBJECT_ID":"2018-039A","EPOCH":"2026-07-12T05:25:31.666944","CLASSIFICATION_TYPE":"U","MEAN_MOTION":14.26735854,"ECCENTRICITY":0.0001066,"INCLINATION":98.6236,"RA_OF_ASC_NODE":260.3977,"ARG_OF_PERICENTER":119.2246,"MEAN_ANOMALY":240.9041,"EPHEMERIS_TYPE":0,"NORAD_CAT_ID":43437,"ELEMENT_SET_NO":999,"REV_AT_EPOCH":42769,"BSTAR":0.00003251,"MEAN_MOTION_DOT":3.5e-7,"MEAN_MOTION_DDOT":0}]}
