SENTINEL-3A             
1 41335U 16011A   26193.46331652  .00000045  00000+0  36778-4 0  9999
2 41335  98.6238 260.4825 0001375  90.9999 269.1339 14.26739285541664
SENTINEL-3B             
1 43437U 18039A   26193.22606096  .00000035  00000+0  32510-4 0  9996
2 43437  98.6236 260.3977 0001066 119.2246 240.9041 14.26735854427692
